STARLINK-35687          
1 66524U 25265J   25341.00002315 -.02014821  00000+0 -24229-1 0  9998
2 66524  43.0009  87.7130 0001607 284.3903 122.4700 15.63370164  4073
STARLINK-35975          
1 66525U 25265K   25341.00002315 -.02010637  00000+0 -24176-1 0  9991
2 66525  43.0005  87.7082 0001623 283.4418 125.3397 15.63365555  4077
STARLINK-35932          
1 66526U 25265L   25341.00002315 -.02012338  00000+0 -24197-1 0  9995
2 66526  43.0006  87.7035 0001585 285.7440 124.9509 15.63368416  3960
STARLINK-35935          
1 66527U 25265M   25340.91668981 -.02001111  00000+0 -23705-1 0  9993
2 66527  43.0001  88.1966 0001563 278.4149  24.5743 15.63723459  4053
STARLINK-35928          
1 66528U 25265N   25340.91668981 -.01998425  00000+0 -23672-1 0  9999
2 66528  43.0002  88.1916 0001579 278.5665  26.3439 15.63719757  4059
STARLINK-35933          
1 66529U 25265P   25340.91668981 -.02000213  00000+0 -23695-1 0  9995
2 66529  43.0002  88.1864 0001621 278.0670  28.7603 15.63720956  4053
STARLINK-35961          
1 66530U 25265Q   25340.91668981 -.01995312  00000+0 -23631-1 0  9999
2 66530  43.0002  88.1822 0001616 279.2650  29.4777 15.63718834  4056
STARLINK-35960          
1 66531U 25265R   25340.91668981 -.01994581  00000+0 -23622-1 0  9997
2 66531  43.0003  88.1768 0001546 274.6773  35.9848 15.63718285  4055
STARLINK-35914          
1 66532U 25265S   25340.91668981 -.01996426  00000+0 -23647-1 0  9995
2 66532  43.0001  88.1722 0001604 279.0645  33.5152 15.63718030  4056
STARLINK-35707          
1 66533U 25265T   25340.91668981 -.01997098  00000+0 -23654-1 0  9990
2 66533  43.0001  88.1678 0001671 278.5280  35.9668 15.63719485  4053
STARLINK-35976          
1 66534U 25265U   25340.91668981 -.01997944  00000+0 -23665-1 0  9993
2 66534  43.0005  88.1634 0001647 279.7443  36.6672 15.63720064  4055
STARLINK-35514          
1 66535U 25265V   25340.91668981 -.01994903  00000+0 -23625-1 0  9992
2 66535  43.0004  88.1583 0001685 281.0074  37.3210 15.63718315  4058
