CCSDS_OMM_VERS = 2.0
CREATION_DATE  = 
ORIGINATOR     = 

OBJECT_NAME    = STARLINK-35687
OBJECT_ID      = 2025-265J
CENTER_NAME    = EARTH
REF_FRAME      = TEME
TIME_SYSTEM    = UTC
MEAN_ELEMENT_THEORY = SGP/SGP4

EPOCH          = 2025-12-07T00:00:02.000160
MEAN_MOTION    = 15.63370164
ECCENTRICITY   = .0001607
INCLINATION    = 43.0009
RA_OF_ASC_NODE = 87.7130
ARG_OF_PERICENTER = 284.3903
MEAN_ANOMALY   = 122.4700

EPHEMERIS_TYPE = 0
CLASSIFICATION_TYPE = U
NORAD_CAT_ID   = 66524
ELEMENT_SET_NO = 999
REV_AT_EPOCH   = 407
BSTAR          = -.24229133E-1
MEAN_MOTION_DOT = -.2014821E-1
MEAN_MOTION_DDOT = 0

CCSDS_OMM_VERS = 2.0
CREATION_DATE  = 
ORIGINATOR     = 

OBJECT_NAME    = STARLINK-35975
OBJECT_ID      = 2025-265K
CENTER_NAME    = EARTH
REF_FRAME      = TEME
TIME_SYSTEM    = UTC
MEAN_ELEMENT_THEORY = SGP/SGP4

EPOCH          = 2025-12-07T00:00:02.000160
MEAN_MOTION    = 15.63365555
ECCENTRICITY   = .0001623
INCLINATION    = 43.0005
RA_OF_ASC_NODE = 87.7082
ARG_OF_PERICENTER = 283.4418
MEAN_ANOMALY   = 125.3397

EPHEMERIS_TYPE = 0
CLASSIFICATION_TYPE = U
NORAD_CAT_ID   = 66525
ELEMENT_SET_NO = 999
REV_AT_EPOCH   = 407
BSTAR          = -.24175986E-1
MEAN_MOTION_DOT = -.2010637E-1
MEAN_MOTION_DDOT = 0

CCSDS_OMM_VERS = 2.0
CREATION_DATE  = 
ORIGINATOR     = 

OBJECT_NAME    = STARLINK-35932
OBJECT_ID      = 2025-265L
CENTER_NAME    = EARTH
REF_FRAME      = TEME
TIME_SYSTEM    = UTC
MEAN_ELEMENT_THEORY = SGP/SGP4

EPOCH          = 2025-12-07T00:00:02.000160
MEAN_MOTION    = 15.63368416
ECCENTRICITY   = .00015856
INCLINATION    = 43.0006
RA_OF_ASC_NODE = 87.7035
ARG_OF_PERICENTER = 285.7440
MEAN_ANOMALY   = 124.9509

EPHEMERIS_TYPE = 0
CLASSIFICATION_TYPE = U
NORAD_CAT_ID   = 66526
ELEMENT_SET_NO = 999
REV_AT_EPOCH   = 396
BSTAR          = -.24196977E-1
MEAN_MOTION_DOT = -.2012338E-1
MEAN_MOTION_DDOT = 0

CCSDS_OMM_VERS = 2.0
CREATION_DATE  = 
ORIGINATOR     = 

OBJECT_NAME    = STARLINK-35935
OBJECT_ID      = 2025-265M
CENTER_NAME    = EARTH
REF_FRAME      = TEME
TIME_SYSTEM    = UTC
MEAN_ELEMENT_THEORY = SGP/SGP4

EPOCH          = 2025-12-06T22:00:01.999584
MEAN_MOTION    = 15.63723459
ECCENTRICITY   = .00015633
INCLINATION    = 43.0001
RA_OF_ASC_NODE = 88.1966
ARG_OF_PERICENTER = 278.4149
MEAN_ANOMALY   = 24.5743

EPHEMERIS_TYPE = 0
CLASSIFICATION_TYPE = U
NORAD_CAT_ID   = 66527
ELEMENT_SET_NO = 999
REV_AT_EPOCH   = 405
BSTAR          = -.23705241E-1
MEAN_MOTION_DOT = -.2001111E-1
MEAN_MOTION_DDOT = 0

CCSDS_OMM_VERS = 2.0
CREATION_DATE  = 
ORIGINATOR     = 

OBJECT_NAME    = STARLINK-35928
OBJECT_ID      = 2025-265N
CENTER_NAME    = EARTH
REF_FRAME      = TEME
TIME_SYSTEM    = UTC
MEAN_ELEMENT_THEORY = SGP/SGP4

EPOCH          = 2025-12-06T22:00:01.999584
MEAN_MOTION    = 15.63719757
ECCENTRICITY   = .00015794
INCLINATION    = 43.0002
RA_OF_ASC_NODE = 88.1916
ARG_OF_PERICENTER = 278.5665
MEAN_ANOMALY   = 26.3439

EPHEMERIS_TYPE = 0
CLASSIFICATION_TYPE = U
NORAD_CAT_ID   = 66528
ELEMENT_SET_NO = 999
REV_AT_EPOCH   = 405
BSTAR          = -.23672318E-1
MEAN_MOTION_DOT = -.1998425E-1
MEAN_MOTION_DDOT = 0

CCSDS_OMM_VERS = 2.0
CREATION_DATE  = 
ORIGINATOR     = 

OBJECT_NAME    = STARLINK-35933
OBJECT_ID      = 2025-265P
CENTER_NAME    = EARTH
REF_FRAME      = TEME
TIME_SYSTEM    = UTC
MEAN_ELEMENT_THEORY = SGP/SGP4

EPOCH          = 2025-12-06T22:00:01.999584
MEAN_MOTION    = 15.63720956
ECCENTRICITY   = .00016211
INCLINATION    = 43.0002
RA_OF_ASC_NODE = 88.1864
ARG_OF_PERICENTER = 278.0670
MEAN_ANOMALY   = 28.7603

EPHEMERIS_TYPE = 0
CLASSIFICATION_TYPE = U
NORAD_CAT_ID   = 66529
ELEMENT_SET_NO = 999
REV_AT_EPOCH   = 405
BSTAR          = -.23694876E-1
MEAN_MOTION_DOT = -.2000213E-1
MEAN_MOTION_DDOT = 0

CCSDS_OMM_VERS = 2.0
CREATION_DATE  = 
ORIGINATOR     = 

OBJECT_NAME    = STARLINK-35961
OBJECT_ID      = 2025-265Q
CENTER_NAME    = EARTH
REF_FRAME      = TEME
TIME_SYSTEM    = UTC
MEAN_ELEMENT_THEORY = SGP/SGP4

EPOCH          = 2025-12-06T22:00:01.999584
MEAN_MOTION    = 15.63718834
ECCENTRICITY   = .00016164
INCLINATION    = 43.0002
RA_OF_ASC_NODE = 88.1822
ARG_OF_PERICENTER = 279.2650
MEAN_ANOMALY   = 29.4777

EPHEMERIS_TYPE = 0
CLASSIFICATION_TYPE = U
NORAD_CAT_ID   = 66530
ELEMENT_SET_NO = 999
REV_AT_EPOCH   = 405
BSTAR          = -.23630784E-1
MEAN_MOTION_DOT = -.1995312E-1
MEAN_MOTION_DDOT = 0

CCSDS_OMM_VERS = 2.0
CREATION_DATE  = 
ORIGINATOR     = 

OBJECT_NAME    = STARLINK-35960
OBJECT_ID      = 2025-265R
CENTER_NAME    = EARTH
REF_FRAME      = TEME
TIME_SYSTEM    = UTC
MEAN_ELEMENT_THEORY = SGP/SGP4

EPOCH          = 2025-12-06T22:00:01.999584
MEAN_MOTION    = 15.63718285
ECCENTRICITY   = .00015468
INCLINATION    = 43.0003
RA_OF_ASC_NODE = 88.1768
ARG_OF_PERICENTER = 274.6773
MEAN_ANOMALY   = 35.9848

EPHEMERIS_TYPE = 0
CLASSIFICATION_TYPE = U
NORAD_CAT_ID   = 66531
ELEMENT_SET_NO = 999
REV_AT_EPOCH   = 405
BSTAR          = -.23622163E-1
MEAN_MOTION_DOT = -.1994581E-1
MEAN_MOTION_DDOT = 0

CCSDS_OMM_VERS = 2.0
CREATION_DATE  = 
ORIGINATOR     = 

OBJECT_NAME    = STARLINK-35914
OBJECT_ID      = 2025-265S
CENTER_NAME    = EARTH
REF_FRAME      = TEME
TIME_SYSTEM    = UTC
MEAN_ELEMENT_THEORY = SGP/SGP4

EPOCH          = 2025-12-06T22:00:01.999584
MEAN_MOTION    = 15.63718030
ECCENTRICITY   = .00016046
INCLINATION    = 43.0001
RA_OF_ASC_NODE = 88.1722
ARG_OF_PERICENTER = 279.0645
MEAN_ANOMALY   = 33.5152

EPHEMERIS_TYPE = 0
CLASSIFICATION_TYPE = U
NORAD_CAT_ID   = 66532
ELEMENT_SET_NO = 999
REV_AT_EPOCH   = 405
BSTAR          = -.23646697E-1
MEAN_MOTION_DOT = -.1996426E-1
MEAN_MOTION_DDOT = 0

CCSDS_OMM_VERS = 2.0
CREATION_DATE  = 
ORIGINATOR     = 

OBJECT_NAME    = STARLINK-35707
OBJECT_ID      = 2025-265T
CENTER_NAME    = EARTH
REF_FRAME      = TEME
TIME_SYSTEM    = UTC
MEAN_ELEMENT_THEORY = SGP/SGP4

EPOCH          = 2025-12-06T22:00:01.999584
MEAN_MOTION    = 15.63719485
ECCENTRICITY   = .00016717
INCLINATION    = 43.0001
RA_OF_ASC_NODE = 88.1678
ARG_OF_PERICENTER = 278.5280
MEAN_ANOMALY   = 35.9668

EPHEMERIS_TYPE = 0
CLASSIFICATION_TYPE = U
NORAD_CAT_ID   = 66533
ELEMENT_SET_NO = 999
REV_AT_EPOCH   = 405
BSTAR          = -.23653685E-1
MEAN_MOTION_DOT = -.1997098E-1
MEAN_MOTION_DDOT = 0

CCSDS_OMM_VERS = 2.0
CREATION_DATE  = 
ORIGINATOR     = 

OBJECT_NAME    = STARLINK-35976
OBJECT_ID      = 2025-265U
CENTER_NAME    = EARTH
REF_FRAME      = TEME
TIME_SYSTEM    = UTC
MEAN_ELEMENT_THEORY = SGP/SGP4

EPOCH          = 2025-12-06T22:00:01.999584
MEAN_MOTION    = 15.63720064
ECCENTRICITY   = .00016472
INCLINATION    = 43.0005
RA_OF_ASC_NODE = 88.1634
ARG_OF_PERICENTER = 279.7443
MEAN_ANOMALY   = 36.6672

EPHEMERIS_TYPE = 0
CLASSIFICATION_TYPE = U
NORAD_CAT_ID   = 66534
ELEMENT_SET_NO = 999
REV_AT_EPOCH   = 405
BSTAR          = -.23664821E-1
MEAN_MOTION_DOT = -.1997944E-1
MEAN_MOTION_DDOT = 0

CCSDS_OMM_VERS = 2.0
CREATION_DATE  = 
ORIGINATOR     = 

OBJECT_NAME    = STARLINK-35514
OBJECT_ID      = 2025-265V
CENTER_NAME    = EARTH
REF_FRAME      = TEME
TIME_SYSTEM    = UTC
MEAN_ELEMENT_THEORY = SGP/SGP4

EPOCH          = 2025-12-06T22:00:01.999584
MEAN_MOTION    = 15.63718315
ECCENTRICITY   = .00016853
INCLINATION    = 43.0004
RA_OF_ASC_NODE = 88.1583
ARG_OF_PERICENTER = 281.0074
MEAN_ANOMALY   = 37.3210

EPHEMERIS_TYPE = 0
CLASSIFICATION_TYPE = U
NORAD_CAT_ID   = 66535
ELEMENT_SET_NO = 999
REV_AT_EPOCH   = 405
BSTAR          = -.23625035E-1
MEAN_MOTION_DOT = -.1994903E-1
MEAN_MOTION_DDOT = 0

